,place_name,place_id,lat,lng,type,monday,tuesday,wednesday,thursday,friday,saturday,sunday
0,Pastelería Vait,ChIJRyCU8RkpQg0RNikv9H3P4Wo,40.4634021,-3.6872361,bakery,"[0, 0, 0, 0, 0, 0, 0, 0, 0, 66, 52, 50, 59, 57, 45, 28, 14, 0, 0, 0, 0, 0, 0, 0]","[0, 0, 0, 0, 0, 0, 0, 0, 0, 47, 71, 71, 59, 69, 80, 59, 23, 4, 0, 0, 0, 0, 0, 0]","[0, 0, 0, 0, 0, 0, 0, 0, 0, 71, 61, 61, 69, 66, 52, 33, 19, 7, 2, 0, 0, 0, 0, 0]","[0, 0, 0, 0, 0, 0, 0, 0, 0, 64, 59, 71, 85, 83, 66, 45, 23, 0, 4, 2, 0, 0, 0, 0]","[0, 0, 0, 0, 0, 0, 0, 0, 0, 66, 78, 95, 100, 80, 52, 26, 11, 4, 4, 4, 0, 0, 0, 0]","[0, 0, 0, 0, 0, 0, 0, 0, 0, 52, 57, 61, 66, 64, 52, 38, 23, 11, 4, 2, 0, 0, 0, 0]","[0, 0, 0, 0, 0, 0, 0, 0, 0, 40, 47, 52, 57, 54, 45, 30, 19, 9, 4, 0, 0, 0, 0, 0]"
1,Starbucks,ChIJm2VWnPsoQg0RoiGw_grXo4o,40.4479271,-3.6952059,bakery,"[0, 0, 0, 0, 0, 0, 0, 0, 7, 25, 30, 25, 23, 23, 15, 10, 14, 37, 62, 63, 39, 13, 0, 0]","[0, 0, 0, 0, 0, 0, 0, 0, 15, 34, 34, 18, 9, 10, 15, 20, 26, 37, 54, 65, 56, 31, 0, 0]","[0, 0, 0, 0, 0, 0, 0, 0, 18, 29, 30, 30, 37, 40, 34, 20, 19, 48, 95, 100, 54, 14, 0, 0]","[0, 0, 0, 0, 0, 0, 0, 0, 14, 43, 53, 29, 9, 6, 17, 28, 34, 28, 32, 57, 50, 14, 0, 0]","[0, 0, 0, 0, 0, 0, 0, 0, 9, 19, 29, 32, 27, 17, 11, 13, 30, 57, 82, 88, 70, 42, 0, 0]","[0, 0, 0, 0, 0, 0, 0, 0, 1, 6, 15, 27, 34, 32, 26, 22, 31, 57, 86, 92, 70, 38, 0, 0]","[0, 0, 0, 0, 0, 0, 0, 0, 5, 13, 23, 32, 36, 31, 23, 23, 40, 64, 60, 36, 43, 32, 0, 0]"
2,La Esperanza,ChIJUZ2yDQQpQg0RK5HfxnUr9_0,40.4592318,-3.6965976,bakery,,,,,,,
3,Pastelería Inbay,ChIJvcQ88QgpQg0Ra4GpxwXksIE,40.4655901,-3.699938399999999,bakery,,,,,,,
4,Valpan S.A.,ChIJsbQC5VUoQg0RKxNGBe6Le60,40.46078139999999,-3.698170999999999,bakery,,,,,,,
5,Boa massa,ChIJk9s5DAQpQg0RGqVnRT1jGMc,40.4593685,-3.6967599,bakery,"[0, 0, 0, 0, 0, 0, 0, 0, 42, 47, 42, 42, 47, 47, 31, 10, 5, 5, 5, 5, 0, 0, 0, 0]","[0, 0, 0, 0, 0, 0, 0, 0, 52, 68, 84, 84, 73, 57, 36, 0, 0, 5, 0, 0, 0, 0, 0, 0]","[0, 0, 0, 0, 0, 0, 0, 0, 42, 73, 100, 100, 73, 42, 21, 0, 0, 5, 15, 15, 0, 0, 0, 0]","[0, 0, 0, 0, 0, 0, 0, 0, 47, 73, 89, 84, 68, 42, 21, 0, 0, 5, 5, 10, 0, 0, 0, 0]","[0, 0, 0, 0, 0, 0, 0, 0, 84, 94, 84, 84, 94, 78, 47, 21, 10, 21, 31, 26, 0, 0, 0, 0]","[0, 0, 0, 0, 0, 0, 0, 0, 21, 52, 73, 73, 63, 52, 31, 0, 0, 0, 0, 0, 0, 0, 0, 0]","[0, 0, 0, 0, 0, 0, 0, 0, 10, 42, 78, 84, 63, 63, 57, 0, 0, 0, 0, 0, 0, 0, 0, 0]"
6,La Tahona Panadería - Pastelería,ChIJx9fc9QcpQg0RsC73Apo0oC8,40.4627699,-3.7028107,bakery,,,,,,,
7,Dulces Glasse,ChIJfxPEc6opQg0RVZg9tkwJrG0,40.4571257,-3.703320100000001,bakery,,,,,,,
8,El Horno,ChIJrQwF3wQpQg0R4b8gX_9U_Sg,40.4610287,-3.693782899999999,bakery,"[0, 0, 0, 0, 0, 0, 0, 11, 26, 32, 23, 17, 17, 20, 17, 14, 11, 0, 0, 0, 0, 0, 0, 0]","[0, 0, 0, 0, 0, 0, 0, 11, 26, 41, 41, 32, 20, 14, 11, 11, 5, 0, 0, 0, 0, 0, 0, 0]","[0, 0, 0, 0, 0, 0, 0, 32, 47, 50, 44, 52, 55, 29, 11, 17, 20, 0, 0, 0, 0, 0, 0, 0]","[0, 0, 0, 0, 0, 0, 0, 41, 58, 67, 100, 76, 38, 35, 32, 26, 17, 0, 0, 0, 0, 0, 0, 0]","[0, 0, 0, 0, 0, 0, 0, 5, 14, 35, 58, 73, 67, 44, 26, 14, 11, 0, 0, 0, 0, 0, 0, 0]","[0, 0, 0, 0, 0, 0, 0, 0, 0, 0, 0, 0, 0, 0, 0, 0, 0, 0, 0, 0, 0, 0, 0, 0]","[0, 0, 0, 0, 0, 0, 0, 0, 0, 11, 23, 32, 38, 32, 20, 0, 0, 0, 0, 0, 0, 0, 0, 0]"
9,Delicias del 38,ChIJ9-NURaopQg0RIoG5HSkl96c,40.4566589,-3.7049012,bakery,,,,,,,
10,Saborilandia,ChIJcSgPlQEpQg0RRBoIFc7blHw,40.45503250000001,-3.6988594,bakery,"[0, 0, 0, 0, 0, 0, 0, 0, 59, 70, 62, 62, 77, 85, 70, 0, 0, 29, 55, 77, 62, 0, 0, 0]","[0, 0, 0, 0, 0, 0, 0, 0, 44, 62, 81, 88, 88, 77, 55, 0, 0, 33, 66, 96, 77, 0, 0, 0]","[0, 0, 0, 0, 0, 0, 0, 0, 48, 44, 74, 92, 100, 88, 62, 0, 0, 40, 62, 70, 55, 0, 0, 0]","[0, 0, 0, 0, 0, 0, 0, 0, 66, 70, 59, 59, 74, 81, 70, 0, 0, 37, 59, 74, 62, 0, 0, 0]","[0, 0, 0, 0, 0, 0, 0, 0, 77, 66, 51, 55, 66, 66, 55, 0, 0, 33, 51, 62, 55, 0, 0, 0]","[0, 0, 0, 0, 0, 0, 0, 0, 66, 81, 66, 51, 59, 70, 59, 0, 0, 0, 0, 0, 0, 0, 0, 0]","[0, 0, 0, 0, 0, 0, 0, 0, 0, 0, 0, 0, 0, 0, 0, 0, 0, 0, 0, 0, 0, 0, 0, 0]"
11,Panadería Cafetería Audrey,ChIJS58RdgApQg0RZ44JgHX6Wig,40.455227,-3.7028454,bakery,,,,,,,
12,Mercado La Lonja,ChIJrY7or6spQg0RZ_gMe1Q4ZrQ,40.4567088,-3.7061872,bakery,,,,,,,
13,Ludavi Pastelería Antoranz,ChIJxQz1l6opQg0RzJScOyY6UNE,40.45490969999999,-3.7035396,bakery,,,,,,,
14,Casa Breogán,ChIJY1vrmaspQg0RaJh38UdEbnI,40.4565151,-3.7068861,bakery,,,,,,,
15,Santa Gloria,ChIJXVgUwAIpQg0RQ7NI_h7BNF0,40.4552424,-3.693803900000001,bakery,"[0, 0, 0, 0, 0, 0, 0, 0, 18, 41, 44, 29, 17, 13, 8, 1, 1, 4, 25, 43, 35, 12, 0, 0]","[0, 0, 0, 0, 0, 0, 0, 0, 14, 25, 35, 35, 27, 14, 5, 1, 1, 12, 25, 32, 28, 16, 0, 0]","[0, 0, 0, 0, 0, 0, 0, 0, 17, 37, 51, 51, 36, 16, 2, 1, 1, 5, 20, 33, 36, 27, 0, 0]","[0, 0, 0, 0, 0, 0, 0, 0, 12, 31, 35, 33, 31, 22, 9, 1, 1, 12, 29, 44, 41, 24, 0, 0]","[0, 0, 0, 0, 0, 0, 0, 0, 27, 41, 41, 39, 39, 31, 13, 1, 1, 6, 29, 55, 62, 44, 0, 0]","[0, 0, 0, 0, 0, 0, 0, 0, 29, 68, 100, 98, 70, 44, 31, 24, 20, 20, 35, 63, 77, 55, 0, 0]","[0, 0, 0, 0, 0, 0, 0, 0, 18, 48, 79, 89, 70, 37, 14, 9, 16, 25, 27, 17, 5, 1, 0, 0]"
16,Bakery Cafe Audrey,ChIJeQliza0pQg0R2fIx1CgAG_M,40.4577678,-3.7106244,bakery,"[0, 0, 0, 0, 0, 0, 0, 19, 37, 53, 60, 51, 33, 19, 14, 17, 23, 23, 17, 10, 3, 1, 0, 0]","[0, 0, 0, 0, 0, 0, 0, 35, 60, 73, 66, 44, 25, 16, 16, 21, 25, 23, 17, 10, 5, 1, 0, 0]","[0, 0, 0, 0, 0, 0, 0, 35, 83, 100, 62, 25, 16, 17, 23, 26, 28, 26, 21, 16, 10, 7, 0, 0]","[0, 0, 0, 0, 0, 0, 0, 16, 44, 76, 89, 67, 35, 16, 14, 17, 23, 26, 23, 17, 10, 5, 0, 0]","[0, 0, 0, 0, 0, 0, 0, 48, 69, 46, 82, 85, 55, 25, 12, 12, 14, 14, 12, 10, 8, 5, 0, 0]","[0, 0, 0, 0, 0, 0, 0, 26, 64, 87, 75, 58, 58, 55, 37, 19, 7, 8, 21, 26, 16, 3, 0, 0]","[0, 0, 0, 0, 0, 0, 0, 23, 51, 69, 57, 41, 37, 33, 25, 19, 23, 28, 26, 19, 10, 3, 0, 0]"
17,Condis,ChIJzTGZd_4oQg0RGrK2twYAl9Y,40.45190480000001,-3.6979633,bakery,"[0, 0, 0, 0, 0, 0, 0, 0, 0, 0, 18, 41, 60, 60, 44, 25, 18, 20, 22, 0, 0, 0, 0, 0]","[0, 0, 0, 0, 0, 0, 0, 0, 0, 0, 34, 46, 50, 46, 36, 24, 12, 12, 22, 0, 0, 0, 0, 0]","[0, 0, 0, 0, 0, 0, 0, 0, 0, 0, 27, 62, 84, 79, 60, 39, 22, 22, 25, 0, 0, 0, 0, 0]","[0, 0, 0, 0, 0, 0, 0, 0, 0, 0, 37, 50, 56, 55, 48, 37, 24, 13, 5, 0, 0, 0, 0, 0]","[0, 0, 0, 0, 0, 0, 0, 0, 0, 0, 24, 51, 58, 46, 36, 24, 15, 12, 12, 0, 0, 0, 0, 0]","[0, 0, 0, 0, 0, 0, 0, 0, 0, 0, 50, 81, 100, 93, 65, 36, 18, 13, 13, 0, 0, 0, 0, 0]","[0, 0, 0, 0, 0, 0, 0, 0, 0, 0, 0, 0, 0, 0, 0, 0, 0, 0, 0, 0, 0, 0, 0, 0]"
18,Cervecería Avenida,ChIJS2xbvP0oQg0RlVQ-_ArxYpM,40.4521857,-3.6960902,bakery,,,,,,,
19,LA MIGUIÑA,ChIJO2fnpv8oQg0Rm7bIavwkMLI,40.4513255,-3.701481900000001,bakery,"[0, 0, 0, 0, 0, 0, 0, 0, 0, 0, 0, 0, 0, 0, 0, 0, 0, 0, 0, 0, 0, 0, 0, 0]","[0, 0, 0, 0, 0, 0, 0, 0, 0, 49, 58, 41, 41, 34, 13, 0, 0, 0, 0, 0, 0, 0, 0, 0]","[0, 0, 0, 0, 0, 0, 0, 0, 0, 33, 39, 49, 54, 39, 17, 0, 0, 0, 0, 0, 0, 0, 0, 0]","[0, 0, 0, 0, 0, 0, 0, 0, 0, 43, 49, 48, 50, 34, 16, 0, 0, 0, 0, 0, 0, 0, 0, 0]","[0, 0, 0, 0, 0, 0, 0, 0, 0, 45, 72, 77, 56, 28, 11, 0, 0, 0, 0, 0, 0, 0, 0, 0]","[0, 0, 0, 0, 0, 0, 0, 0, 0, 100, 72, 72, 82, 51, 19, 0, 0, 0, 0, 0, 0, 0, 0, 0]","[0, 0, 0, 0, 0, 0, 0, 0, 0, 0, 0, 0, 0, 0, 0, 0, 0, 0, 0, 0, 0, 0, 0, 0]"
20,Librería Alcaná,ChIJe6x0CwgpQg0RytMwOhwTZzk,40.463103,-3.70261,book_store,"[0, 0, 0, 0, 0, 0, 0, 0, 0, 0, 60, 74, 68, 48, 0, 0, 0, 77, 100, 95, 66, 0, 0, 0]","[0, 0, 0, 0, 0, 0, 0, 0, 0, 0, 75, 84, 68, 40, 0, 0, 0, 65, 74, 62, 39, 0, 0, 0]","[0, 0, 0, 0, 0, 0, 0, 0, 0, 0, 59, 69, 66, 50, 0, 0, 0, 56, 74, 62, 37, 0, 0, 0]","[0, 0, 0, 0, 0, 0, 0, 0, 0, 0, 62, 69, 60, 40, 0, 0, 0, 63, 86, 89, 68, 0, 0, 0]","[0, 0, 0, 0, 0, 0, 0, 0, 0, 0, 60, 89, 75, 37, 0, 0, 0, 59, 77, 68, 40, 0, 0, 0]","[0, 0, 0, 0, 0, 0, 0, 0, 0, 0, 57, 77, 78, 60, 0, 0, 0, 0, 0, 0, 0, 0, 0, 0]","[0, 0, 0, 0, 0, 0, 0, 0, 0, 0, 0, 0, 0, 0, 0, 0, 0, 0, 0, 0, 0, 0, 0, 0]"
21,Dideco Sor Ángela Tienda de Juguetes y libros,ChIJIYhD0-IoQg0Rfa5Rogh9hQE,40.4596659,-3.6934098,book_store,"[0, 0, 0, 0, 0, 0, 0, 0, 0, 0, 0, 0, 0, 0, 0, 0, 0, 0, 0, 0, 0, 0, 0, 0]","[0, 0, 0, 0, 0, 0, 0, 0, 0, 0, 0, 0, 0, 0, 0, 0, 0, 0, 0, 0, 0, 0, 0, 0]","[0, 0, 0, 0, 0, 0, 0, 0, 0, 0, 0, 13, 23, 16, 0, 0, 0, 20, 43, 46, 0, 0, 0, 0]","[0, 0, 0, 0, 0, 0, 0, 0, 0, 0, 0, 20, 26, 13, 0, 0, 0, 33, 50, 33, 0, 0, 0, 0]","[0, 0, 0, 0, 0, 0, 0, 0, 0, 0, 0, 20, 33, 26, 0, 0, 0, 26, 60, 23, 0, 0, 0, 0]","[0, 0, 0, 0, 0, 0, 0, 0, 0, 0, 0, 40, 100, 80, 20, 0, 0, 0, 0, 0, 0, 0, 0, 0]","[0, 0, 0, 0, 0, 0, 0, 0, 0, 0, 0, 0, 0, 0, 0, 0, 0, 0, 0, 0, 0, 0, 0, 0]"
22,Casa del Libro,ChIJe1u8hvsoQg0RQkHu2IghQkc,40.4484766,-3.695624,book_store,"[0, 0, 0, 0, 0, 0, 0, 0, 0, 0, 7, 11, 14, 16, 16, 13, 10, 10, 18, 28, 26, 0, 0, 0]","[0, 0, 0, 0, 0, 0, 0, 0, 0, 0, 6, 10, 13, 13, 9, 6, 5, 13, 23, 23, 11, 0, 0, 0]","[0, 0, 0, 0, 0, 0, 0, 0, 0, 0, 4, 11, 19, 20, 13, 8, 11, 20, 26, 23, 13, 0, 0, 0]","[0, 0, 0, 0, 0, 0, 0, 0, 0, 0, 18, 26, 33, 36, 32, 25, 19, 25, 55, 64, 29, 0, 0, 0]","[0, 0, 0, 0, 0, 0, 0, 0, 0, 0, 20, 28, 33, 34, 30, 24, 18, 29, 76, 100, 51, 0, 0, 0]","[0, 0, 0, 0, 0, 0, 0, 0, 0, 0, 20, 39, 54, 55, 40, 22, 14, 30, 71, 82, 44, 0, 0, 0]","[0, 0, 0, 0, 0, 0, 0, 0, 0, 0, 0, 8, 10, 7, 5, 0, 12, 18, 19, 15, 8, 0, 0, 0]"
23,Librería Lé,ChIJhWiKsR0pQg0R1SZgERKqvpc,40.456342,-3.6896484,book_store,"[0, 0, 0, 0, 0, 0, 0, 0, 0, 0, 17, 35, 33, 15, 4, 2, 8, 24, 37, 31, 15, 0, 0, 0]","[0, 0, 0, 0, 0, 0, 0, 0, 0, 0, 28, 42, 40, 22, 11, 17, 20, 8, 24, 51, 22, 0, 0, 0]","[0, 0, 0, 0, 0, 0, 0, 0, 0, 0, 4, 15, 31, 44, 44, 35, 26, 13, 8, 31, 35, 0, 0, 0]","[0, 0, 0, 0, 0, 0, 0, 0, 0, 0, 8, 15, 20, 20, 15, 8, 4, 8, 26, 31, 13, 0, 0, 0]","[0, 0, 0, 0, 0, 0, 0, 0, 0, 0, 31, 64, 33, 15, 15, 15, 13, 20, 64, 100, 57, 0, 0, 0]","[0, 0, 0, 0, 0, 0, 0, 0, 0, 0, 24, 46, 60, 51, 28, 11, 8, 26, 64, 77, 46, 0, 0, 0]","[0, 0, 0, 0, 0, 0, 0, 0, 0, 0, 0, 0, 0, 0, 0, 0, 0, 0, 0, 0, 0, 0, 0, 0]"
24,Libro Motor,ChIJk4od6vsoQg0RbRzR8Cd-zP0,40.4474719,-3.6968754,book_store,,,,,,,
25,Papelería - Librería Tetuán,ChIJeZVw7ggpQg0RxBMkWzzKf9E,40.4638824,-3.6963283,book_store,,,,,,,
26,Tik Books Libros Usados BM,ChIJndnwvgYpQg0RoH0DpeMH0I0,40.45989069999999,-3.6988877,book_store,,,,,,,
27,Pulpture Ediciones / La Boutique de Zothique / Grupo Editorial Plural Mayestático,ChIJ6YJ2EzsvQg0Rp6dEH2W_QDY,40.455443,-3.6976825,book_store,,,,,,,
28,Viajes Scibasku,ChIJndzn9hkpQg0R73xa8FnE7eU,40.4634921,-3.6874389,book_store,,,,,,,
29,Agencia del libro. Publicar un libro.,ChIJM0QLhxkpQg0RnVFgf3zGdaI,40.45468899999999,-3.6888572,book_store,,,,,,,
30,TodoPapel,ChIJa6CaRVQoQg0RW4A6M8li2lc,40.450105,-3.705982999999999,book_store,,,,,,,
31,Ivorypress,ChIJo1Whd_4oQg0R45h_HPGv9lo,40.4518796,-3.69802,book_store,,,,,,,
32,Papelería Librería Ortiz SL,ChIJP8fqgw8pQg0REhMvtsSnbag,40.4642657,-3.695025,book_store,,,,,,,
33,Librería Áurea Clasicos,ChIJ5ZHF31UoQg0RAiNMxIUZs1M,40.4485714,-3.704135599999999,book_store,,,,,,,
34,el kiosko,ChIJYeXrM6wpQg0RDdeG5VCueCI,40.4575741,-3.710157999999999,book_store,,,,,,,
35,Marepe Librería-Papelería-Copistería,ChIJjSHxDLIpQg0RbFTLYNw2u0c,40.457305,-3.713489999999999,book_store,,,,,,,
36,Abacus Books Raimundo,ChIJ38i35fgoQg0RHoYnWAlOCt0,40.44701889999999,-3.700799199999999,book_store,"[0, 0, 0, 0, 0, 0, 0, 0, 0, 0, 15, 31, 31, 15, 10, 21, 36, 57, 63, 47, 31, 0, 0, 0]","[0, 0, 0, 0, 0, 0, 0, 0, 0, 0, 15, 26, 31, 21, 15, 15, 26, 36, 36, 31, 15, 0, 0, 0]","[0, 0, 0, 0, 0, 0, 0, 0, 0, 0, 10, 26, 36, 21, 10, 15, 21, 15, 57, 94, 21, 0, 0, 0]","[0, 0, 0, 0, 0, 0, 0, 0, 0, 0, 10, 26, 31, 15, 5, 21, 31, 21, 47, 52, 15, 0, 0, 0]","[0, 0, 0, 0, 0, 0, 0, 0, 0, 0, 0, 47, 63, 31, 10, 10, 15, 26, 57, 100, 84, 0, 0, 0]","[0, 0, 0, 0, 0, 0, 0, 0, 0, 0, 0, 0, 0, 0, 0, 0, 0, 0, 0, 0, 0, 0, 0, 0]","[0, 0, 0, 0, 0, 0, 0, 0, 0, 0, 0, 0, 0, 0, 0, 0, 0, 0, 0, 0, 0, 0, 0, 0]"
37,Learn Japanese Today,ChIJzSpMLoM0DA0Rwen6Efpkelg,40.468498,-3.6853175,book_store,,,,,,,
38,Lita Hormiguita,ChIJ8ZKXHLopQg0RNS2AUJ_V1o8,40.4630659,-3.7178817,book_store,,,,,,,
39,Papelería Veguez,ChIJT6F4uQcpQg0RF-atG9CD6Wg,40.4622892,-3.701181,book_store,,,,,,,
40,Maviran,ChIJNbqEEgUpQg0R3A6M_Kje1_M,40.46262900000001,-3.694668,book_store,,,,,,,
41,Libros de texto - libros de segunda mano.,ChIJSdXjhQspQg0R0GXYSUDKHJY,40.4648331,-3.6959833,book_store,,,,,,,
42,LIBRERIA D.OPPORTUNITIES WORLD,ChIJJ7eXb8wpQg0Ro1PX203plv0,40.4648331,-3.6959833,book_store,,,,,,,
43,"Nos hemos cambiado a Capitan blanco argibay,10",ChIJq_6MPCUpQg0R35t--K_ciuE,40.4648331,-3.6959833,book_store,,,,,,,
44,KIOSCO ARIAS,ChIJE7DbtRwpQg0RQmnlGDtrra0,40.4577772,-3.6924429,book_store,"[0, 0, 0, 0, 0, 0, 0, 77, 85, 77, 81, 74, 51, 25, 11, 0, 0, 0, 0, 0, 0, 0, 0, 0]","[0, 0, 0, 0, 0, 0, 0, 100, 62, 51, 62, 44, 25, 18, 14, 0, 0, 0, 0, 0, 0, 0, 0, 0]","[0, 0, 0, 0, 0, 0, 0, 62, 66, 62, 70, 55, 33, 33, 25, 0, 0, 0, 0, 0, 0, 0, 0, 0]","[0, 0, 0, 0, 0, 0, 0, 81, 74, 59, 70, 62, 40, 55, 37, 0, 0, 0, 0, 0, 0, 0, 0, 0]","[0, 0, 0, 0, 0, 0, 0, 81, 55, 66, 85, 51, 18, 40, 18, 0, 0, 0, 0, 0, 0, 0, 0, 0]","[0, 0, 0, 0, 0, 0, 0, 0, 33, 37, 25, 25, 33, 29, 18, 0, 0, 0, 0, 0, 0, 0, 0, 0]","[0, 0, 0, 0, 0, 0, 0, 0, 11, 62, 85, 44, 48, 62, 33, 0, 0, 0, 0, 0, 0, 0, 0, 0]"
45,Librería Espacio Lector Nobel Tetuán,ChIJu4ZgRPYpQg0RLKo9zK6r_qM,40.45428810000001,-3.6977469,book_store,,,,,,,
46,Tik books Libros Usados GO,ChIJObWctqopQg0R_WANWYBWg-4,40.45388639999999,-3.7039703,book_store,,,,,,,
47,Kiosko de Prensa José Antonio Paino,ChIJOawEVB0pQg0R-w1It_Pz-88,40.4541709,-3.6926717,book_store,,,,,,,
48,Kiosko (Oscar Ricardo Pérez Cervera),ChIJ-e8twhspQg0R5Bxl2SV9q9Q,40.46068129999999,-3.688512499999999,book_store,,,,,,,
49,Centro Prensa,ChIJOzurHRQpQg0RUegpQxYmhEw,40.4694662,-3.6868596,book_store,,,,,,,
50,"Vida Consciente, S.L.",ChIJDSDmuR4pQg0RPSYwX_o__MU,40.4585154,-3.6866645,book_store,,,,,,,
51,Lindos Libros,ChIJa5k7mBkpQg0RsqbXOFVoVek,40.4623225,-3.6865152,book_store,,,,,,,
52,Allsystem Services,ChIJgZk4HRQpQg0Rb35mvR8nN6c,40.4694314,-3.6869929,book_store,,,,,,,
53,"Kory, papelería",ChIJcYxVHlYoQg0RktDhzLXYd_c,40.44737620000001,-3.703024700000001,book_store,,,,,,,
54,María Luisa de la Fuente Martínez,ChIJtUoDGaIpQg0RewDbWSeRD-Y,40.4728185,-3.7083978,book_store,,,,,,,
55,Germanischer Lloyd España,ChIJi1WhlQIpQg0RB9S-61Cp7IY,40.4549894,-3.6941146,convenience_store,,,,,,,
56,La Antigua Bacaladera,ChIJachZmQApQg0RRWPP_B5lY_c,40.4570581,-3.7024641,convenience_store,,,,,,,
57,Algas Gourmet - Tienda Algas comestibles,ChIJ75DORQUpQg0R5X-J_8AIJ1I,40.463157,-3.693523000000001,convenience_store,,,,,,,
58,Marajaspain,ChIJmzx0lEODQQ0RtTzWtzizGvY,40.46607,-3.691499,convenience_store,,,,,,,
59,Casa Ruiz Granel Selecto Madrid-Chamartín,ChIJHSsMLhopQg0R62gFjnGjdxY,40.4620299,-3.6882542,convenience_store,"[0, 0, 0, 0, 0, 0, 0, 0, 0, 0, 0, 0, 0, 0, 0, 0, 0, 0, 0, 0, 0, 0, 0, 0]","[0, 0, 0, 0, 0, 0, 0, 0, 0, 0, 41, 29, 32, 25, 0, 0, 0, 29, 29, 22, 0, 0, 0, 0]","[0, 0, 0, 0, 0, 0, 0, 0, 0, 0, 9, 35, 48, 32, 0, 0, 0, 12, 9, 6, 0, 0, 0, 0]","[0, 0, 0, 0, 0, 0, 0, 0, 0, 0, 35, 38, 45, 51, 0, 0, 0, 16, 16, 16, 0, 0, 0, 0]","[0, 0, 0, 0, 0, 0, 0, 0, 0, 0, 22, 48, 38, 12, 0, 0, 0, 25, 22, 12, 0, 0, 0, 0]","[0, 0, 0, 0, 0, 0, 0, 0, 0, 0, 35, 83, 100, 61, 0, 0, 0, 0, 0, 0, 0, 0, 0, 0]","[0, 0, 0, 0, 0, 0, 0, 0, 0, 0, 0, 0, 0, 0, 0, 0, 0, 0, 0, 0, 0, 0, 0, 0]"
60,Unide Supermercado,ChIJa4EwWaUpQg0RLIE7icmS-yk,40.46364899999999,-3.712211,convenience_store,"[0, 0, 0, 0, 0, 0, 0, 0, 0, 0, 0, 0, 0, 0, 0, 0, 0, 0, 0, 0, 0, 0, 0, 0]","[0, 0, 0, 0, 0, 0, 0, 0, 0, 13, 26, 46, 53, 40, 0, 0, 0, 53, 73, 26, 0, 0, 0, 0]","[0, 0, 0, 0, 0, 0, 0, 0, 0, 6, 26, 60, 66, 33, 0, 0, 0, 13, 60, 60, 13, 0, 0, 0]","[0, 0, 0, 0, 0, 0, 0, 0, 0, 0, 13, 40, 60, 60, 0, 0, 0, 40, 53, 40, 26, 0, 0, 0]","[0, 0, 0, 0, 0, 0, 0, 0, 0, 26, 40, 33, 46, 33, 0, 0, 0, 6, 46, 100, 66, 0, 0, 0]","[0, 0, 0, 0, 0, 0, 0, 0, 0, 0, 0, 0, 0, 0, 0, 0, 0, 0, 0, 0, 0, 0, 0, 0]","[0, 0, 0, 0, 0, 0, 0, 0, 0, 0, 0, 0, 0, 0, 0, 0, 0, 0, 0, 0, 0, 0, 0, 0]"
61,Supercor Exprés,ChIJ7b0z9RkpQg0Ry8ye8mBEReQ,40.4631446,-3.687516499999999,convenience_store,"[0, 0, 0, 0, 0, 0, 0, 0, 2, 11, 26, 41, 48, 41, 25, 12, 9, 19, 38, 49, 41, 23, 7, 1]","[0, 0, 0, 0, 0, 0, 0, 0, 4, 15, 30, 43, 47, 38, 24, 13, 13, 27, 44, 47, 36, 22, 9, 2]","[0, 0, 0, 0, 0, 0, 0, 0, 3, 13, 27, 41, 48, 42, 28, 15, 10, 21, 46, 65, 58, 32, 9, 1]","[0, 0, 0, 0, 0, 0, 0, 0, 5, 15, 26, 33, 36, 36, 34, 30, 28, 33, 43, 49, 43, 28, 13, 2]","[0, 0, 0, 0, 0, 0, 0, 0, 8, 24, 44, 63, 72, 65, 47, 27, 19, 32, 59, 75, 61, 30, 8, 1]","[0, 0, 0, 0, 0, 0, 0, 0, 5, 21, 45, 71, 86, 80, 57, 32, 18, 22, 37, 48, 39, 19, 5, 0]","[0, 0, 0, 0, 0, 0, 0, 0, 2, 17, 44, 77, 100, 94, 66, 34, 18, 27, 50, 61, 44, 18, 2, 0]"
62,Qfresh.co,ChIJVaUr2fgoQg0R3nkCC7gMGsw,40.447639,-3.7005339,convenience_store,,,,,,,
63,"Monva, S.L.",ChIJYycG7PsoQg0RQtGBfo9dYYU,40.4476844,-3.6967234,convenience_store,,,,,,,
64,Supercor,ChIJLXPSuAApQg0RTTnY-GJVVug,40.45777349999999,-3.7018441,convenience_store,"[0, 0, 0, 0, 0, 0, 0, 0, 0, 28, 44, 57, 61, 56, 42, 27, 18, 23, 45, 60, 43, 16, 0, 0]","[0, 0, 0, 0, 0, 0, 0, 0, 0, 30, 46, 59, 64, 59, 46, 31, 21, 26, 48, 63, 48, 20, 0, 0]","[0, 0, 0, 0, 0, 0, 0, 0, 0, 33, 47, 59, 62, 56, 44, 30, 21, 26, 44, 56, 45, 21, 0, 0]","[0, 0, 0, 0, 0, 0, 0, 0, 0, 33, 52, 62, 62, 56, 46, 35, 27, 35, 58, 67, 46, 17, 0, 0]","[0, 0, 0, 0, 0, 0, 0, 0, 0, 27, 48, 64, 69, 64, 54, 44, 34, 33, 50, 71, 63, 31, 0, 0]","[0, 0, 0, 0, 0, 0, 0, 0, 0, 42, 69, 93, 100, 86, 60, 34, 19, 24, 48, 68, 57, 27, 0, 0]","[0, 0, 0, 0, 0, 0, 0, 0, 0, 27, 52, 79, 94, 87, 63, 37, 22, 23, 35, 40, 31, 16, 0, 0]"
65,Alimentación Frutos Secos,ChIJi6bINgQpQg0RWmm8tj0ENaw,40.4609953,-3.696836399999999,convenience_store,,,,,,,
66,Cosmo Cash & Carry,ChIJTYRTwwApQg0RETuOete6YFE,40.4577076,-3.7011078,convenience_store,"[0, 0, 0, 0, 0, 0, 0, 0, 0, 11, 24, 25, 30, 38, 31, 23, 27, 39, 46, 41, 27, 13, 0, 0]","[0, 0, 0, 0, 0, 0, 0, 0, 0, 7, 20, 35, 40, 33, 27, 28, 32, 38, 53, 58, 39, 14, 0, 0]","[0, 0, 0, 0, 0, 0, 0, 0, 0, 3, 15, 30, 45, 46, 33, 22, 22, 35, 46, 45, 32, 18, 0, 0]","[0, 0, 0, 0, 0, 0, 0, 0, 0, 3, 18, 42, 58, 51, 34, 27, 34, 46, 53, 51, 40, 25, 0, 0]","[0, 0, 0, 0, 0, 0, 0, 0, 0, 6, 22, 44, 57, 52, 35, 27, 31, 45, 55, 57, 48, 33, 0, 0]","[0, 0, 0, 0, 0, 0, 0, 0, 0, 7, 33, 73, 100, 92, 71, 61, 61, 64, 70, 69, 54, 31, 0, 0]","[0, 0, 0, 0, 0, 0, 0, 0, 0, 0, 24, 44, 59, 60, 47, 33, 28, 37, 48, 50, 38, 20, 0, 0]"
67,Galp,ChIJ0YJKlAApQg0RmKgzPAymW-Q,40.45727,-3.701901,convenience_store,"[0, 0, 0, 0, 0, 0, 0, 4, 8, 12, 14, 15, 15, 14, 13, 14, 17, 21, 26, 30, 31, 28, 22, 0]","[0, 0, 0, 0, 0, 0, 0, 5, 8, 9, 10, 10, 10, 12, 15, 19, 22, 21, 20, 26, 40, 43, 26, 0]","[0, 0, 0, 0, 0, 0, 0, 1, 4, 8, 10, 12, 12, 12, 11, 11, 14, 19, 28, 36, 39, 37, 28, 0]","[0, 0, 0, 0, 0, 0, 0, 3, 6, 10, 14, 16, 19, 20, 20, 21, 22, 27, 34, 42, 46, 44, 36, 0]","[0, 0, 0, 0, 0, 0, 0, 6, 9, 14, 17, 20, 20, 20, 18, 17, 19, 27, 38, 50, 56, 54, 45, 0]","[0, 0, 0, 0, 0, 0, 0, 2, 4, 6, 8, 14, 25, 36, 39, 33, 26, 26, 37, 51, 65, 70, 66, 0]","[0, 0, 0, 0, 0, 0, 0, 1, 2, 7, 15, 25, 33, 38, 39, 34, 28, 24, 33, 66, 100, 89, 45, 0]"
68,Mercado Ñanduti 100% Latino S.L,ChIJyUL3HekpQg0RxoXGVIYWQh4,40.46515640000001,-3.6982728,convenience_store,,,,,,,
69,Alimentación Y Frutos Secos,ChIJ6fodQqopQg0RbTRPEUNW-_0,40.4570394,-3.7042261,convenience_store,,,,,,,
70,Oceans Eleven SL,ChIJW8yp4A8pQg0Rxztl7qccZno,40.4653407,-3.6930411,convenience_store,,,,,,,
71,Hiper Euro,ChIJg8CjaqspQg0RSQIZ2wyVjJ0,40.45461940000001,-3.7066662,convenience_store,,,,,,,
72,Mini Market,ChIJB-p7wf8oQg0RI10xgyDkPJA,40.4526292,-3.701258,convenience_store,,,,,,,
73,Alimentacion,ChIJZYauH-YpQg0R2SQ_CljfFqw,40.4617065,-3.7106353,convenience_store,,,,,,,
74,ALIMENTACION Y BAZAR,ChIJHT0auk8pQg0Rx1131-IfJEw,40.4676812,-3.693364599999999,convenience_store,,,,,,,
75,Adfb Asociación de Distribuidores de Ferretería y Bricolage,ChIJzx-flR4pQg0RiySIzE8Jdcw,40.4585154,-3.6866645,hardware_store,,,,,,,
76,Ferretería Tetuán,ChIJf_nhuAYpQg0Rkanf3XHCS7U,40.4596135,-3.6990075,hardware_store,,,,,,,
77,Ferretería Leonesa Castellana,ChIJZRLTjBwpQg0RDTD1114BjY8,40.4576998,-3.690660499999999,hardware_store,"[0, 0, 0, 0, 0, 0, 0, 0, 0, 0, 18, 44, 51, 29, 11, 0, 29, 62, 70, 44, 0, 0, 0, 0]","[0, 0, 0, 0, 0, 0, 0, 0, 0, 0, 25, 62, 62, 25, 0, 0, 18, 74, 92, 33, 0, 0, 0, 0]","[0, 0, 0, 0, 0, 0, 0, 0, 0, 0, 11, 37, 44, 18, 3, 0, 11, 22, 62, 48, 0, 0, 0, 0]","[0, 0, 0, 0, 0, 0, 0, 0, 0, 0, 11, 40, 70, 44, 11, 0, 11, 44, 55, 25, 0, 0, 0, 0]","[0, 0, 0, 0, 0, 0, 0, 0, 0, 0, 22, 51, 70, 51, 22, 0, 7, 22, 33, 22, 0, 0, 0, 0]","[0, 0, 0, 0, 0, 0, 0, 0, 0, 0, 29, 77, 100, 62, 0, 0, 0, 0, 0, 0, 0, 0, 0, 0]","[0, 0, 0, 0, 0, 0, 0, 0, 0, 0, 0, 0, 0, 0, 0, 0, 0, 0, 0, 0, 0, 0, 0, 0]"
78,Hardware Lauro Chichón,ChIJj5N0FBIpQg0RoFUXTkOG-xQ,40.4702366,-3.691786199999999,hardware_store,,,,,,,
79,Ferreteria-AEP Plaza Castilla,ChIJl728pxYpQg0RGS4hKNnAjeU,40.4692733,-3.687087,hardware_store,,,,,,,
80,Manuel Fidalgo Gómez,ChIJv5rtRg4pQg0ROrJXzrZBinM,40.4674011,-3.6943306,hardware_store,,,,,,,
81,Ferreteria Chamartin,ChIJ6zr2iwApQg0R9WMEAf1CeG4,40.46451419999999,-3.694661599999999,hardware_store,"[0, 0, 0, 0, 0, 0, 0, 0, 0, 0, 0, 0, 0, 0, 0, 0, 0, 0, 0, 0, 0, 0, 0, 0]","[0, 0, 0, 0, 0, 0, 0, 0, 0, 0, 30, 55, 60, 40, 15, 0, 0, 25, 45, 15, 0, 0, 0, 0]","[0, 0, 0, 0, 0, 0, 0, 0, 0, 0, 0, 0, 0, 0, 0, 0, 0, 0, 0, 0, 0, 0, 0, 0]","[0, 0, 0, 0, 0, 0, 0, 0, 0, 0, 10, 35, 70, 55, 25, 5, 5, 20, 25, 10, 0, 0, 0, 0]","[0, 0, 0, 0, 0, 0, 0, 0, 0, 0, 40, 55, 35, 15, 0, 0, 0, 45, 100, 20, 0, 0, 0, 0]","[0, 0, 0, 0, 0, 0, 0, 0, 0, 0, 45, 95, 85, 30, 0, 0, 0, 0, 0, 0, 0, 0, 0, 0]","[0, 0, 0, 0, 0, 0, 0, 0, 0, 0, 0, 0, 0, 0, 0, 0, 0, 0, 0, 0, 0, 0, 0, 0]"
82,Ferreteria Electricidad Gregorio García,ChIJxdIzqAUpQg0R3dQr2Vg19GU,40.46214189999999,-3.695167,hardware_store,"[0, 0, 0, 0, 0, 0, 0, 0, 0, 18, 48, 74, 65, 34, 0, 0, 9, 27, 53, 53, 0, 0, 0, 0]","[0, 0, 0, 0, 0, 0, 0, 0, 0, 25, 55, 72, 55, 25, 0, 0, 9, 25, 37, 34, 0, 0, 0, 0]","[0, 0, 0, 0, 0, 0, 0, 0, 0, 16, 34, 48, 48, 32, 0, 0, 18, 39, 9, 46, 0, 0, 0, 0]","[0, 0, 0, 0, 0, 0, 0, 0, 0, 18, 44, 67, 58, 30, 0, 0, 2, 20, 44, 27, 0, 0, 0, 0]","[0, 0, 0, 0, 0, 0, 0, 0, 0, 18, 44, 62, 58, 32, 0, 0, 13, 25, 32, 25, 0, 0, 0, 0]","[0, 0, 0, 0, 0, 0, 0, 0, 0, 13, 53, 100, 83, 34, 0, 0, 0, 0, 0, 0, 0, 0, 0, 0]","[0, 0, 0, 0, 0, 0, 0, 0, 0, 0, 0, 0, 0, 0, 0, 0, 0, 0, 0, 0, 0, 0, 0, 0]"
83,Ferretería Alvaro,ChIJ52RhlwYpQg0Ri-2n0s0kOps,40.4602045,-3.698595799999999,hardware_store,,,,,,,
84,Ferrokey Peláez Lope de Haro 38,ChIJa5WHUKopQg0RFbraHGeaQY8,40.456712,-3.7047919,hardware_store,"[0, 0, 0, 0, 0, 0, 0, 0, 0, 5, 36, 42, 55, 61, 0, 0, 0, 25, 63, 53, 17, 0, 0, 0]","[0, 0, 0, 0, 0, 0, 0, 0, 0, 3, 30, 78, 61, 15, 0, 0, 0, 3, 44, 92, 32, 0, 0, 0]","[0, 0, 0, 0, 0, 0, 0, 0, 0, 9, 28, 59, 71, 51, 0, 0, 0, 11, 63, 50, 5, 0, 0, 0]","[0, 0, 0, 0, 0, 0, 0, 0, 0, 11, 34, 61, 61, 36, 0, 0, 0, 26, 75, 53, 9, 0, 0, 0]","[0, 0, 0, 0, 0, 0, 0, 0, 0, 9, 23, 40, 48, 38, 0, 0, 0, 26, 53, 46, 17, 0, 0, 0]","[0, 0, 0, 0, 0, 0, 0, 0, 0, 0, 44, 82, 100, 71, 0, 0, 0, 0, 0, 0, 0, 0, 0, 0]","[0, 0, 0, 0, 0, 0, 0, 0, 0, 0, 0, 0, 0, 0, 0, 0, 0, 0, 0, 0, 0, 0, 0, 0]"
85,Cerrajeria Madrid Yague,ChIJB7_EtQgpQg0RuncLbvlW-kI,40.46506299999999,-3.698104,hardware_store,,,,,,,
86,Ferretería Cuzco,ChIJX59eUR0pQg0RSI5sXk6TZMY,40.4571718,-3.6926738,hardware_store,"[0, 0, 0, 0, 0, 0, 0, 0, 0, 26, 50, 73, 69, 46, 0, 0, 11, 38, 50, 23, 0, 0, 0, 0]","[0, 0, 0, 0, 0, 0, 0, 0, 0, 0, 80, 100, 42, 46, 0, 0, 7, 23, 30, 19, 0, 0, 0, 0]","[0, 0, 0, 0, 0, 0, 0, 0, 0, 11, 42, 73, 65, 26, 0, 0, 0, 30, 30, 15, 0, 0, 0, 0]","[0, 0, 0, 0, 0, 0, 0, 0, 0, 7, 19, 46, 61, 50, 0, 0, 19, 30, 26, 7, 0, 0, 0, 0]","[0, 0, 0, 0, 0, 0, 0, 0, 0, 26, 57, 73, 57, 26, 0, 0, 3, 15, 30, 26, 0, 0, 0, 0]","[0, 0, 0, 0, 0, 0, 0, 0, 0, 0, 15, 46, 76, 57, 0, 0, 0, 0, 0, 0, 0, 0, 0, 0]","[0, 0, 0, 0, 0, 0, 0, 0, 0, 0, 0, 0, 0, 0, 0, 0, 0, 0, 0, 0, 0, 0, 0, 0]"
87,Ferretería Electricidad HEFELEC,ChIJe-oduB0pQg0RbYnBAwC179Y,40.455904,-3.688933,hardware_store,"[0, 0, 0, 0, 0, 0, 0, 0, 0, 0, 0, 0, 0, 0, 0, 0, 0, 0, 0, 0, 0, 0, 0, 0]","[0, 0, 0, 0, 0, 0, 0, 0, 0, 21, 57, 100, 92, 50, 0, 0, 0, 7, 14, 7, 0, 0, 0, 0]","[0, 0, 0, 0, 0, 0, 0, 0, 0, 35, 57, 57, 42, 50, 0, 0, 14, 28, 21, 7, 0, 0, 0, 0]","[0, 0, 0, 0, 0, 0, 0, 0, 0, 0, 0, 0, 0, 0, 0, 0, 0, 0, 0, 0, 0, 0, 0, 0]","[0, 0, 0, 0, 0, 0, 0, 0, 0, 28, 100, 71, 57, 57, 0, 0, 7, 14, 14, 14, 0, 0, 0, 0]","[0, 0, 0, 0, 0, 0, 0, 0, 0, 0, 0, 0, 0, 0, 0, 0, 0, 0, 0, 0, 0, 0, 0, 0]","[0, 0, 0, 0, 0, 0, 0, 0, 0, 0, 0, 0, 0, 0, 0, 0, 0, 0, 0, 0, 0, 0, 0, 0]"
88,Cuchillería José López,ChIJE-EjqwEpQg0RSkANvMRKY3U,40.4558065,-3.700601,hardware_store,,,,,,,
89,Ferretería Laes,ChIJu64ZbAYpQg0R1Z5GBsrO3Q4,40.4623873,-3.6986791,hardware_store,,,,,,,
90,Ferreteria Adeva Alburquerque,ChIJcVrz3gUpQg0Rxz2iiQz7JRg,40.462476,-3.697591099999999,hardware_store,,,,,,,
91,Ferretería Margallo,ChIJbQUyMAQpQg0RpyXwYiaG3Yg,40.4606654,-3.696172499999999,hardware_store,"[0, 0, 0, 0, 0, 0, 0, 0, 0, 41, 62, 74, 69, 50, 0, 0, 30, 100, 48, 67, 0, 0, 0, 0]","[0, 0, 0, 0, 0, 0, 0, 0, 0, 46, 72, 85, 77, 53, 0, 0, 30, 54, 70, 61, 0, 0, 0, 0]","[0, 0, 0, 0, 0, 0, 0, 0, 0, 43, 69, 82, 74, 48, 0, 0, 35, 59, 74, 62, 0, 0, 0, 0]","[0, 0, 0, 0, 0, 0, 0, 0, 0, 45, 74, 91, 87, 62, 0, 0, 25, 40, 50, 43, 0, 0, 0, 0]","[0, 0, 0, 0, 0, 0, 0, 0, 0, 27, 51, 72, 80, 69, 0, 0, 27, 64, 51, 58, 0, 0, 0, 0]","[0, 0, 0, 0, 0, 0, 0, 0, 0, 0, 45, 75, 88, 74, 0, 0, 0, 0, 0, 0, 0, 0, 0, 0]","[0, 0, 0, 0, 0, 0, 0, 0, 0, 0, 0, 0, 0, 0, 0, 0, 0, 0, 0, 0, 0, 0, 0, 0]"
92,TODOCERRADURAS,ChIJ6cXF-38pQg0RidJCbSssmMs,40.4571702,-3.6993703,hardware_store,,,,,,,
93,Electricidad y copia de llaves Castilla,ChIJYXEx2fMpQg0RCHDDzzzwlzE,40.45641059999999,-3.7053183,hardware_store,,,,,,,
94,Ferretería Saez,ChIJF-i696opQg0RSOggMgU1-U4,40.4559258,-3.7045815,hardware_store,"[0, 0, 0, 0, 0, 0, 0, 0, 0, 9, 34, 61, 57, 30, 0, 0, 0, 17, 44, 40, 0, 0, 0, 0]","[0, 0, 0, 0, 0, 0, 0, 0, 0, 5, 36, 28, 46, 76, 0, 0, 0, 13, 34, 44, 0, 0, 0, 0]","[0, 0, 0, 0, 0, 0, 0, 0, 0, 3, 23, 44, 57, 23, 0, 0, 0, 23, 46, 46, 0, 0, 0, 0]","[0, 0, 0, 0, 0, 0, 0, 0, 0, 15, 40, 57, 48, 21, 0, 0, 0, 5, 46, 63, 0, 0, 0, 0]","[0, 0, 0, 0, 0, 0, 0, 0, 0, 3, 26, 61, 63, 30, 0, 0, 0, 17, 50, 53, 0, 0, 0, 0]","[0, 0, 0, 0, 0, 0, 0, 0, 0, 0, 32, 75, 100, 78, 0, 0, 0, 0, 0, 0, 0, 0, 0, 0]","[0, 0, 0, 0, 0, 0, 0, 0, 0, 0, 0, 0, 0, 0, 0, 0, 0, 0, 0, 0, 0, 0, 0, 0]"
95,Restaurante La Dehesa I,ChIJRydMvq0pQg0RvEO29O1UGyY,40.4568978,-3.7115297,store,"[0, 0, 0, 0, 0, 0, 0, 0, 0, 0, 4, 13, 25, 32, 27, 16, 7, 7, 23, 55, 83, 76, 42, 14]","[0, 0, 0, 0, 0, 0, 0, 0, 0, 3, 8, 20, 34, 39, 33, 20, 11, 13, 25, 44, 57, 53, 37, 19]","[0, 0, 0, 0, 0, 0, 0, 0, 0, 0, 1, 7, 23, 46, 61, 52, 29, 13, 17, 46, 80, 82, 50, 18]","[0, 0, 0, 0, 0, 0, 0, 0, 0, 0, 1, 7, 18, 32, 38, 30, 17, 11, 19, 42, 66, 73, 56, 29]","[0, 0, 0, 0, 0, 0, 0, 0, 0, 2, 5, 11, 21, 30, 34, 31, 24, 20, 27, 53, 84, 100, 84, 50]","[0, 0, 0, 0, 0, 0, 0, 0, 0, 1, 4, 13, 31, 54, 65, 56, 34, 19, 21, 42, 69, 80, 66, 38]","[0, 0, 0, 0, 0, 0, 0, 0, 0, 0, 0, 8, 23, 42, 56, 52, 38, 33, 44, 51, 46, 44, 37, 16]"
96,"K-tuin, Tienda Apple",ChIJP9HDaAMpQg0R1ErWdlCycrQ,40.4581519,-3.6942442,store,"[0, 0, 0, 0, 0, 0, 0, 0, 0, 0, 70, 100, 98, 70, 50, 56, 68, 66, 66, 90, 50, 0, 0, 0]","[0, 0, 0, 0, 0, 0, 0, 0, 0, 0, 47, 84, 94, 68, 39, 31, 47, 68, 76, 66, 45, 0, 0, 0]","[0, 0, 0, 0, 0, 0, 0, 0, 0, 0, 43, 66, 64, 50, 33, 27, 43, 70, 80, 60, 31, 0, 0, 0]","[0, 0, 0, 0, 0, 0, 0, 0, 0, 0, 56, 68, 62, 45, 25, 13, 19, 49, 84, 84, 47, 0, 0, 0]","[0, 0, 0, 0, 0, 0, 0, 0, 0, 0, 78, 76, 66, 66, 43, 21, 37, 80, 96, 56, 17, 0, 0, 0]","[0, 0, 0, 0, 0, 0, 0, 0, 0, 0, 19, 56, 82, 58, 21, 5, 13, 39, 56, 43, 15, 0, 0, 0]","[0, 0, 0, 0, 0, 0, 0, 0, 0, 0, 0, 0, 0, 0, 0, 0, 0, 0, 0, 0, 0, 0, 0, 0]"
97,Librería Alcaná,ChIJe6x0CwgpQg0RytMwOhwTZzk,40.463103,-3.70261,store,"[0, 0, 0, 0, 0, 0, 0, 0, 0, 0, 60, 74, 68, 48, 0, 0, 0, 77, 100, 95, 66, 0, 0, 0]","[0, 0, 0, 0, 0, 0, 0, 0, 0, 0, 75, 84, 68, 40, 0, 0, 0, 65, 74, 62, 39, 0, 0, 0]","[0, 0, 0, 0, 0, 0, 0, 0, 0, 0, 59, 69, 66, 50, 0, 0, 0, 56, 74, 62, 37, 0, 0, 0]","[0, 0, 0, 0, 0, 0, 0, 0, 0, 0, 62, 69, 60, 40, 0, 0, 0, 63, 86, 89, 68, 0, 0, 0]","[0, 0, 0, 0, 0, 0, 0, 0, 0, 0, 60, 89, 75, 37, 0, 0, 0, 59, 77, 68, 40, 0, 0, 0]","[0, 0, 0, 0, 0, 0, 0, 0, 0, 0, 57, 77, 78, 60, 0, 0, 0, 0, 0, 0, 0, 0, 0, 0]","[0, 0, 0, 0, 0, 0, 0, 0, 0, 0, 0, 0, 0, 0, 0, 0, 0, 0, 0, 0, 0, 0, 0, 0]"
98,Calzados El Ferrocarril,ChIJcZqyjAUpQg0RN3gR0CUUSoQ,40.4635366,-3.696608699999999,store,,,,,,,
99,Bicimanía,ChIJ6WwFPf8oQg0R-M_hPyAJsho,40.4496605,-3.7011173,store,,,,,,,
100,El Quinto Vino,ChIJtXn2SPkoQg0RhldfLz_RYWk,40.448057,-3.699002,store,"[0, 0, 0, 0, 0, 0, 0, 0, 0, 0, 5, 14, 24, 29, 29, 20, 0, 0, 0, 0, 0, 0, 0, 0]","[0, 0, 0, 0, 0, 0, 0, 0, 0, 0, 16, 20, 22, 37, 40, 25, 9, 1, 3, 12, 27, 38, 35, 18]","[0, 0, 0, 0, 0, 0, 0, 0, 0, 0, 16, 42, 31, 48, 62, 51, 29, 12, 11, 18, 27, 33, 31, 24]","[0, 0, 0, 0, 0, 0, 0, 0, 0, 0, 11, 24, 31, 38, 51, 51, 33, 16, 14, 31, 55, 74, 68, 46]","[0, 0, 0, 0, 0, 0, 0, 0, 0, 0, 5, 11, 20, 29, 35, 35, 29, 20, 12, 20, 57, 94, 96, 100]","[0, 0, 0, 0, 0, 0, 0, 0, 0, 0, 0, 0, 0, 64, 83, 77, 0, 0, 0, 0, 0, 59, 66, 53]","[0, 0, 0, 0, 0, 0, 0, 0, 0, 0, 0, 0, 0, 0, 0, 0, 0, 0, 0, 0, 0, 0, 0, 0]"
101,Sitomaco,ChIJP1U9bQYpQg0RuqpIcaaBZbQ,40.4625996,-3.6985795,store,"[0, 0, 0, 0, 0, 0, 0, 0, 0, 20, 17, 44, 68, 58, 0, 0, 0, 0, 0, 0, 0, 0, 0, 0]","[0, 0, 0, 0, 0, 0, 0, 0, 0, 44, 65, 58, 44, 37, 0, 0, 0, 0, 0, 0, 0, 0, 0, 0]","[0, 0, 0, 0, 0, 0, 0, 0, 0, 34, 44, 41, 55, 37, 0, 0, 0, 0, 0, 0, 0, 0, 0, 0]","[0, 0, 0, 0, 0, 0, 0, 0, 0, 13, 41, 68, 72, 48, 0, 0, 0, 0, 0, 0, 0, 0, 0, 0]","[0, 0, 0, 0, 0, 0, 0, 0, 0, 3, 10, 27, 48, 51, 0, 0, 0, 0, 0, 0, 0, 0, 0, 0]","[0, 0, 0, 0, 0, 0, 0, 0, 0, 0, 0, 0, 0, 0, 0, 0, 0, 0, 0, 0, 0, 0, 0, 0]","[0, 0, 0, 0, 0, 0, 0, 0, 0, 0, 0, 0, 0, 0, 0, 0, 0, 0, 0, 0, 0, 0, 0, 0]"
102,La Selva,ChIJOfIWABspQg0RFlOxqNyvMZE,40.4611578,-3.691244299999999,store,"[0, 0, 0, 0, 0, 0, 15, 69, 38, 7, 23, 61, 84, 84, 76, 69, 53, 46, 23, 15, 7, 0, 0, 0]","[0, 0, 0, 0, 0, 0, 0, 7, 15, 30, 46, 53, 46, 30, 0, 0, 7, 23, 38, 23, 7, 0, 0, 0]","[0, 0, 0, 0, 0, 0, 0, 0, 0, 0, 0, 0, 0, 0, 0, 0, 0, 0, 0, 0, 0, 0, 0, 0]","[0, 0, 0, 0, 0, 0, 0, 7, 38, 76, 69, 46, 53, 76, 100, 92, 61, 30, 15, 38, 7, 0, 0, 0]","[0, 0, 0, 0, 0, 0, 0, 0, 23, 30, 92, 84, 30, 30, 30, 38, 30, 23, 15, 15, 7, 0, 0, 0]","[0, 0, 0, 0, 0, 0, 0, 0, 0, 0, 0, 0, 0, 0, 0, 0, 0, 0, 0, 0, 0, 0, 0, 0]","[0, 0, 0, 0, 0, 0, 0, 0, 0, 0, 0, 0, 0, 0, 0, 0, 0, 0, 0, 0, 0, 0, 0, 0]"
103,Lidl,ChIJV0OEkgUpQg0RAzxXmDMQdAY,40.4632405,-3.6964343,store,"[0, 0, 0, 0, 0, 0, 0, 0, 0, 39, 75, 89, 79, 68, 63, 55, 46, 51, 80, 97, 68, 25, 0, 0]","[0, 0, 0, 0, 0, 0, 0, 0, 0, 28, 58, 78, 77, 69, 61, 49, 37, 44, 74, 94, 72, 32, 0, 0]","[0, 0, 0, 0, 0, 0, 0, 0, 0, 29, 69, 59, 65, 74, 69, 54, 45, 55, 79, 91, 73, 39, 0, 0]","[0, 0, 0, 0, 0, 0, 0, 0, 0, 27, 60, 81, 75, 62, 54, 46, 40, 48, 69, 76, 55, 24, 0, 0]","[0, 0, 0, 0, 0, 0, 0, 0, 0, 21, 36, 52, 63, 62, 53, 43, 43, 57, 70, 68, 47, 23, 0, 0]","[0, 0, 0, 0, 0, 0, 0, 0, 0, 30, 75, 100, 92, 80, 64, 42, 32, 53, 89, 93, 57, 20, 0, 0]","[0, 0, 0, 0, 0, 0, 0, 0, 0, 0, 0, 0, 0, 0, 0, 0, 0, 0, 0, 0, 0, 0, 0, 0]"
104,Menkes,ChIJJxE42f8oQg0Rjoz9h2CVMpA,40.45347410000001,-3.701165899999999,store,,,,,,,
105,Rodilla,ChIJWyAnHBEpQg0R4fRzobQH7iw,40.4676187,-3.6895198,store,"[0, 0, 0, 0, 0, 0, 0, 0, 41, 64, 82, 88, 82, 64, 41, 17, 5, 5, 23, 35, 29, 11, 0, 0]","[0, 0, 0, 0, 0, 0, 0, 0, 35, 82, 82, 52, 52, 58, 58, 47, 35, 17, 5, 11, 41, 17, 0, 0]","[0, 0, 0, 0, 0, 0, 0, 0, 17, 29, 41, 58, 76, 88, 100, 100, 88, 76, 58, 41, 29, 17, 0, 0]","[0, 0, 0, 0, 0, 0, 0, 0, 23, 41, 58, 64, 64, 52, 29, 17, 5, 17, 52, 35, 41, 29, 0, 0]","[0, 0, 0, 0, 0, 0, 0, 0, 29, 29, 29, 52, 70, 76, 58, 35, 0, 23, 41, 47, 41, 17, 0, 0]","[0, 0, 0, 0, 0, 0, 0, 0, 0, 0, 0, 0, 0, 0, 0, 0, 0, 0, 0, 0, 0, 0, 0, 0]","[0, 0, 0, 0, 0, 0, 0, 0, 17, 11, 11, 17, 29, 17, 0, 5, 5, 5, 5, 11, 11, 11, 0, 0]"
106,Disfracestuyyo.com,ChIJb-33dwYpQg0RzElmClSJzqU,40.462026,-3.697905999999999,store,,,,,,,
107,Realcafé Bernabéu,ChIJn9MFN-IoQg0R2cK2wvRxbrs,40.4521565,-3.6884927,store,,,,,,,
108,La Marea,ChIJG6-vjQYpQg0R8a-mJI3xiOE,40.4612244,-3.698896599999999,store,,,,,,,
109,Tokyo-ya Japanese Food Store Madrid,ChIJJ5G0GwIpQg0Rsn40iZY6Aew,40.4546255,-3.6974034,store,"[0, 0, 0, 0, 0, 0, 0, 0, 0, 0, 27, 43, 45, 30, 0, 0, 0, 34, 46, 36, 0, 0, 0, 0]","[0, 0, 0, 0, 0, 0, 0, 0, 0, 0, 16, 36, 45, 34, 0, 0, 0, 34, 81, 56, 0, 0, 0, 0]","[0, 0, 0, 0, 0, 0, 0, 0, 0, 0, 18, 42, 54, 39, 0, 0, 0, 13, 51, 51, 0, 0, 0, 0]","[0, 0, 0, 0, 0, 0, 0, 0, 0, 0, 25, 34, 34, 25, 0, 0, 0, 31, 53, 39, 0, 0, 0, 0]","[0, 0, 0, 0, 0, 0, 0, 0, 0, 0, 16, 24, 28, 24, 0, 0, 0, 39, 63, 53, 0, 0, 0, 0]","[0, 0, 0, 0, 0, 0, 0, 0, 0, 0, 36, 75, 100, 80, 0, 0, 0, 42, 50, 37, 0, 0, 0, 0]","[0, 0, 0, 0, 0, 0, 0, 0, 0, 0, 0, 0, 0, 0, 0, 0, 0, 0, 0, 0, 0, 0, 0, 0]"
110,Madrid Norte Wagen,ChIJ0RwcVhspQg0RcEZBOzsxwxk,40.45901159999999,-3.692528499999999,store,,,,,,,
111,Tableros Sanz,ChIJr83kBQ8pQg0RAxUdPQbpkXA,40.4659601,-3.6955825,store,"[0, 0, 0, 0, 0, 0, 0, 0, 0, 67, 59, 87, 80, 0, 0, 21, 31, 33, 25, 0, 0, 0, 0, 0]","[0, 0, 0, 0, 0, 0, 0, 0, 0, 53, 50, 51, 56, 0, 0, 22, 65, 75, 37, 0, 0, 0, 0, 0]","[0, 0, 0, 0, 0, 0, 0, 0, 0, 36, 79, 100, 69, 0, 0, 20, 30, 33, 26, 0, 0, 0, 0, 0]","[0, 0, 0, 0, 0, 0, 0, 0, 0, 56, 91, 89, 53, 0, 0, 26, 34, 34, 26, 0, 0, 0, 0, 0]","[0, 0, 0, 0, 0, 0, 0, 0, 0, 27, 45, 53, 44, 0, 0, 16, 42, 55, 31, 0, 0, 0, 0, 0]","[0, 0, 0, 0, 0, 0, 0, 0, 0, 0, 0, 0, 0, 0, 0, 0, 0, 0, 0, 0, 0, 0, 0, 0]","[0, 0, 0, 0, 0, 0, 0, 0, 0, 0, 0, 0, 0, 0, 0, 0, 0, 0, 0, 0, 0, 0, 0, 0]"
112,BILLARNET CAFÉ,ChIJhaOfvxopQg0R3vjOY3li-EQ,40.4627974,-3.6918129,store,,,,,,,
113,Fantasias,ChIJs8oX-fwoQg0RcK7cC1-9n0E,40.450779,-3.694482,store,,,,,,,
114,HNOS. PEREZ BRAVO MURILLO,ChIJ1x9nelUoQg0RdrnoprVxqB4,40.4514566,-3.703504,store,"[0, 0, 0, 0, 0, 0, 0, 0, 0, 8, 41, 39, 41, 31, 0, 0, 0, 8, 62, 100, 39, 0, 0, 0]","[0, 0, 0, 0, 0, 0, 0, 0, 0, 5, 18, 37, 43, 29, 0, 0, 0, 15, 98, 96, 13, 0, 0, 0]","[0, 0, 0, 0, 0, 0, 0, 0, 0, 24, 46, 24, 34, 31, 0, 0, 0, 17, 72, 86, 29, 0, 0, 0]","[0, 0, 0, 0, 0, 0, 0, 0, 0, 15, 32, 44, 44, 31, 0, 0, 0, 6, 63, 86, 17, 0, 0, 0]","[0, 0, 0, 0, 0, 0, 0, 0, 0, 13, 31, 32, 50, 34, 0, 0, 0, 20, 36, 36, 18, 0, 0, 0]","[0, 0, 0, 0, 0, 0, 0, 0, 0, 13, 34, 58, 65, 50, 0, 0, 0, 10, 17, 1, 0, 0, 0, 0]","[0, 0, 0, 0, 0, 0, 0, 0, 0, 0, 0, 0, 0, 0, 0, 0, 0, 0, 0, 0, 0, 0, 0, 0]"
115,Floristeria Nueva Venecia,ChIJI3Qo3QYpQg0R8_4TZMhrVCM,40.45994,-3.699932000000001,florist,,,,,,,
116,Flores Yohana Alonso S.L.,ChIJX0gFhBwpQg0RNqVfPAcy3Uw,40.4587841,-3.6908352,florist,,,,,,,
117,Floristería Edelvais,ChIJk-Fpwf0oQg0RYbKF9IYfT8Q,40.452261,-3.6967867,florist,,,,,,,
118,FLORISTERIA JACARANDA,ChIJB7GzjRkpQg0Rn3LkT8qcbhk,40.462777,-3.687190999999999,florist,,,,,,,
119,"Ohanami, Flores y Belleza",ChIJ7z7DEQQpQg0RqpZDfa4qW-U,40.459542,-3.696968399999999,florist,,,,,,,
120,Flowers and Plants Moreno,ChIJXThsmg8pQg0RGmP6Ed7wFGA,40.46483239999999,-3.694725,florist,,,,,,,
121,KOKEDAMAS RUBIO,ChIJKeZIcq4pQg0RqChW-1mH2XI,40.4589051,-3.7115568,florist,,,,,,,
122,La Ponsetia,ChIJZ3PcBv0oQg0RJdJ4j09HtwE,40.4517388,-3.6948663,florist,,,,,,,
123,Flores VincaperVinca,ChIJzTqG7IEoQg0ReiAQN43WTg0,40.471613,-3.701520099999999,florist,,,,,,,
124,Flores Amalia Madrid,ChIJ5wEwJxcpQg0RaEBXCas5kwE,40.4667082,-3.6866302,florist,,,,,,,
125,¡Porque sí!,ChIJD5bgrfgoQg0RlpKSeliRr8w,40.4482162,-3.702341600000001,florist,,,,,,,
126,Malba,ChIJnbpq-hMpQg0RV3RqoT9Hn-s,40.4697113,-3.6876471,florist,,,,,,,
127,Caslaflor SL,ChIJR3XNheMoQg0ROEKeQft1YyA,40.4493812,-3.689776599999999,florist,,,,,,,
128,Los Sauces Floristería,ChIJzVulKR8pQg0ROv97ND_xL30,40.45904669999999,-3.6849459,florist,,,,,,,
129,Las flores del Jardín,ChIJPy2esqspQg0RsGdWHAQdP2w,40.456687,-3.705594,florist,,,,,,,
130,Floristeria Cloris,ChIJDXHTHwEpQg0RxYaeSEf5btw,40.4573328,-3.700339999999999,florist,,,,,,,
131,Flores Inoma,ChIJz1gEawUpQg0RqcUDmBtJp0c,40.46292689999999,-3.694360199999999,florist,,,,,,,
132,Zinnia Floristas,ChIJzXH90wIpQg0RbsQgqfFpfHg,40.4558594,-3.6927134,florist,,,,,,,
133,Monceau Fleurs Madrid,ChIJh3-COP4oQg0RR1D3zSOONGk,40.45254860000001,-3.699526300000001,florist,"[0, 0, 0, 0, 0, 0, 0, 0, 0, 0, 12, 12, 18, 27, 27, 24, 18, 21, 36, 36, 21, 6, 0, 0]","[0, 0, 0, 0, 0, 0, 0, 0, 0, 0, 12, 21, 24, 21, 18, 15, 18, 24, 30, 24, 12, 6, 0, 0]","[0, 0, 0, 0, 0, 0, 0, 0, 0, 0, 12, 21, 24, 15, 6, 9, 18, 30, 42, 42, 33, 18, 0, 0]","[0, 0, 0, 0, 0, 0, 0, 0, 0, 0, 21, 30, 36, 36, 30, 21, 18, 15, 9, 6, 12, 18, 0, 0]","[0, 0, 0, 0, 0, 0, 0, 0, 0, 0, 24, 27, 15, 27, 36, 18, 30, 39, 39, 30, 18, 9, 0, 0]","[0, 0, 0, 0, 0, 0, 0, 0, 0, 0, 33, 72, 100, 96, 63, 39, 36, 54, 66, 57, 36, 15, 0, 0]","[0, 0, 0, 0, 0, 0, 0, 0, 0, 0, 21, 57, 54, 51, 45, 21, 6, 12, 36, 27, 0, 0, 0, 0]"
134,Pili Flores Bernabeu,ChIJbSK1o-EoQg0RsZNRW76SQyw,40.4522749,-3.685789999999999,florist,,,,,,,
